P/2021 V2 (Fuls),e,12.6942,232.2850,259.8268,9.054299,0.0361761,0.61381751,358.6468,12/15.0/2022,2000,g 10.0,4.0
# From MPEC 2022-X67
C/2021 X1 (Maury-Attard),e,140.1213,10.5850,334.6277,66786,0.0000001,0.99995158,0.0000,05/27.4826/2023,2000,g  7.0,4.0
# From MPEC 2022-X67
A/2021 X2,h,07/08.1261/2022,137.1581,228.8130,193.2869,1.001386,2.994405,2000,16.0,2.0
# From MPEC 2022-X67
C/2021 Y1 (ATLAS),h,04/30.6968/2023,77.1891,244.7697,245.8119,1.000867,2.032465,2000,7.0,4.0
# From MPEC 2022-ST7
C/2022 A1 (Sarneczky),e,116.5048,285.5281,201.2231,356.8839,0.0001462,0.99648956,0.0000,01/31.1632/2022,2000,g 18.0,4.0
# From MPEC 2022-X67
C/2022 A2 (PANSTARRS),h,02/18.2639/2023,108.1471,171.5799,88.3650,1.000370,1.735304,2000,9.5,4.0
# From MPEC 2022-X67
C/2022 A3 (Lemmon-ATLAS),e,88.3510,325.4837,234.8477,942.1354,0.0000341,0.99606914,0.0000,09/28.8387/2023,2000,g  8.0,4.0
# From MPEC 2022-K19
P/2022 B1 (Wierzchos),e,10.9903,148.8476,325.4746,5.465813,0.0771298,0.65302799,22.5729,12/15.0/2022,2000,g 16.5,4.0
# From MPEC 2022-X67
A/2022 B3,e,132.0526,286.1836,150.6854,910.1807,0.0000359,0.99593667,0.0000,01/17.5693/2022,2000,g 16.5,2.0
# From MPEC 2022-GA9
C/2022 B4 (Bok),e,20.0437,340.6573,152.9419,382.3715,0.0001318,0.99639284,0.0000,01/29.8902/2022,2000,g 21.0,4.0
# From MPEC 2022-H04
P/2022 C1 (PANSTARRS),e,4.7616,113.1401,9.3607,7.219425,0.0508101,0.44799511,20.6045,12/15.0/2022,2000,g 12.0,4.0
# From MPEC 2022-OB6
P/2022 C2 (PANSTARRS),e,9.9798,135.2685,89.2953,6.044561,0.0663219,0.44241004,8.6526,12/15.0/2022,2000,g 12.5,4.0
# From MPEC 2022-OB6
P/2022 C3 (PANSTARRS),e,12.8162,139.0546,93.9372,9.643605,0.0329113,0.54638608,5.4901,12/15.0/2022,2000,g 11.5,4.0
# From MPEC 2022-K19
P/2022 D1 (PANSTARRS),e,44.0712,47.9589,88.6946,7.401549,0.0489463,0.54712337,23.1999,12/15.0/2022,2000,g 12.5,4.0
# From MPEC 2022-K19
C/2022 D2 (Kowalski),e,22.6541,312.4630,177.7864,366.6715,0.0001404,0.99575932,0.0000,03/27.5703/2022,2000,g 17.0,4.0
# From MPEC 2022-L66
P/2022 E1 (Christensen),e,19.0049,113.3447,115.0827,3.780998,0.1340585,0.22101754,25.1314,12/15.0/2022,2000,g 13.5,4.0
# From MPEC 2022-X67
C/2022 E2 (ATLAS),h,09/13.9282/2024,137.1395,125.3603,41.6741,1.001164,3.667217,2000,5.0,4.0
# From MPEC 2022-X67
C/2022 E3 (ZTF),h,01/12.7839/2023,109.1690,302.5550,145.8142,1.000328,1.112248,2000,7.5,4.0
# From MPEC 2022-WD2
C/2022 F1 (ATLAS),e,57.9719,350.6572,278.2713,20049,0.0000003,0.99970201,0.0000,08/05.1890/2022,2000,g  7.0,4.0
# From MPEC 2022-QD9
C/2022 F2 (NEOWISE),e,97.2932,58.6973,200.6265,23.88116,0.0084454,0.93362879,2.2512,12/15.0/2022,2000,g 14.5,4.0
# From MPEC 2022-P82
C/2022 H1 (PANSTARRS),e,49.8714,6.3684,246.2655,1013,0.0000306,0.99240577,0.0000,01/18.8832/2024,2000,g  6.0,4.0
# From MPEC 2022-VC5
C/2022 J1 (Maury-Attard),e,105.9336,280.7258,305.6645,47.62885,0.0029985,0.96631589,0.8964,12/15.0/2022,2000,g 14.9,4.0
# From MPEC 2022-X67
C/2022 J2 (Bok),e,149.0923,252.5590,133.0675,91.98455,0.0011172,0.98013176,0.0000,10/27.0675/2022,2000,g 15.5,4.0
# From MPEC 2022-ST7
C/2022 K1 (Leonard),h,12/17.5023/2021,41.9708,136.2922,142.6709,1.002906,3.987604,2000,11.0,4.0
# From MPEC 2022-UE6
C/2022 L1 (Catalina),e,123.4687,300.0259,59.8560,542.5431,0.0000780,0.99706658,0.0000,09/28.2516/2022,2000,g 15.8,4.0
# From MPEC 2022-WQ9
C/2022 L2 (ATLAS),h,03/12.3617/2024,129.3130,39.2436,199.9585,1.001202,2.691771,2000,6.5,4.0
# From MPEC 2022-X67
P/2022 L3 (ATLAS),e,21.5429,29.8050,10.3265,6.505437,0.0594004,0.62802504,2.7352,12/15.0/2022,2000,g 16.5,4.0
# From MPEC 2022-N37
C/2022 L4 (PANSTARRS),e,141.2322,66.0507,125.3253,274.3340,0.0002169,0.98900954,0.0000,12/08.7505/2021,2000,g 14.0,4.0
# From MPEC 2022-WD2
P/2022 M1 (LONEOS-PANSTARRS),e,7.0251,322.9091,4.4617,4.892339,0.0910813,0.57867775,12.2647,12/15.0/2022,2000,g 17.0,4.0
# From MPEC 2022-VC5
C/2022 N1 (Attard-Maury),e,164.7408,301.8595,41.0759,37.02280,0.0043752,0.95997601,0.4198,12/15.0/2022,2000,g 16.9,4.0
# From MPEC 2022-QD9
C/2022 N2 (PANSTARRS),h,07/31.4079/2025,5.5021,319.7373,75.3476,1.004229,3.826115,2000,6.0,4.0
# From MPEC 2022-WQ9
C/2022 O1 (ATLAS),h,02/15.5884/2022,71.0439,49.9115,268.8875,1.004725,7.430159,2000,6.0,4.0
# From MPEC 2022-X67
P/2022 O2 (PANSTARRS),e,9.4248,330.4983,48.6370,6.314717,0.0621117,0.72178780,358.5653,12/15.0/2022,2000,g 16.0,4.0
# From MPEC 2022-WQ9
C/2022 P1 (NEOWISE),e,154.6067,205.0820,249.9365,18.41048,0.0124769,0.91335495,0.2061,12/15.0/2022,2000,g 13.0,4.0
# From MPEC 2022-X67
P/2022 P2 (ZTF),e,12.4424,291.2350,137.6402,4.494577,0.1034358,0.55882586,16.2500,12/15.0/2022,2000,g 12.5,4.0
# From MPEC 2022-X67
C/2022 P3 (ZTF),e,59.5184,72.2345,0.0938,244.4376,0.0002579,0.98952159,0.0000,07/27.3468/2022,2000,g 12.0,4.0
# From MPEC 2022-X67
C/2022 Q2 (ATLAS),e,151.4852,352.9441,44.0689,32.62674,0.0052886,0.94961051,359.7482,12/15.0/2022,2000,g 13.0,4.0
# From MPEC 2022-X67
C/2022 QE78 (ATLAS),h,09/10.3733/2025,36.5496,119.9370,0.3465,1.002592,5.483157,2000,5.0,4.0
# From MPEC 2022-WD2
P/2022 R1 (PANSTARRS),e,7.4083,176.1750,222.6186,7.186654,0.0511580,0.50340109,344.5929,12/15.0/2022,2000,g 11.5,4.0
# From MPEC 2022-WD2
C/2022 R2 (ATLAS),e,52.8951,60.4032,78.3773,420.2105,0.0001144,0.99849460,0.0000,10/25.2198/2022,2000,g 17.0,4.0
# From MPEC 2022-WD2
C/2022 R3 (Leonard),h,03/04.8160/2023,43.0828,8.2377,72.8078,1.000478,5.129342,2000,9.0,4.0
# From MPEC 2022-X67
P/2022 R4 (PANSTARRS),e,21.0217,176.6236,197.4269,3.836352,0.1311676,0.49025311,20.6766,12/15.0/2022,2000,g 16.5,4.0
# From MPEC 2022-WQ9
P/2022 R5 (PANSTARRS),e,15.2925,115.0592,240.6475,3.070170,0.1832148,0.19564884,36.8790,12/15.0/2022,2000,g 16.0,4.0
# From MPEC 2022-X67
C/2022 R6 (PANSTARRS),h,08/25.9512/2025,57.0200,150.7549,319.8416,1.002413,6.570967,2000,5.0,4.0
# From MPEC 2022-WQ9
P/2022 S1 (PANSTARRS),e,34.5818,136.0871,262.7644,6.407404,0.0607688,0.50817112,7.1595,12/15.0/2022,2000,g 13.0,4.0
# From MPEC 2022-VC5
C/2022 S3 (PANSTARRS),h,01/21.6833/2023,78.5531,157.3230,267.9628,1.000361,0.838392,2000,17.0,4.0
# From MPEC 2022-WQ9
C/2022 S4 (Lemmon),h,07/17.9713/2024,101.0385,220.1545,268.3354,1.000917,2.766866,2000,8.0,4.0
# From MPEC 2022-WD2
C/2022 S5 (PANSTARRS),e,136.5325,214.8583,232.7745,20.41178,0.0106877,0.89325916,0.1875,12/15.0/2022,2000,g 15.0,4.0
# From MPEC 2022-WQ9
A/2022 T1,e,22.5432,236.9251,324.3545,8609,0.0000012,0.99960005,0.0000,02/17.5940/2024,2000,g 12.0,2.0
# From MPEC 2022-X67
C/2022 U1 (Leonard),e,128.1290,72.5030,78.5049,14847,0.0000005,0.99971689,0.0000,03/25.4941/2024,2000,g  8.5,4.0
# From MPEC 2022-X67
C/2022 U2 (ATLAS),e,48.2505,304.4731,147.9115,96.44487,0.0010406,0.98623044,0.0000,01/14.2195/2023,2000,g 16.0,4.0
# From MPEC 2022-X67
C/2022 U3 (Bok),h,07/27.6997/2024,33.6201,272.8109,188.9449,1.002761,4.830515,2000,7.5,4.0
# From MPEC 2022-X67
C/2022 U4 (Bok),e,52.0380,132.9323,89.0101,3534,0.0000047,0.99917992,0.0000,08/03.6975/2023,2000,g 10.5,4.0
# From MPEC 2022-WQ9
P/2022 U5 (PANSTARRS),e,19.8127,54.5890,19.9866,4.204885,0.1143070,0.36129387,16.2352,12/15.0/2022,2000,g 14.0,4.0
# From MPEC 2022-X67
P/2022 V1 (WISE-Lemmon),e,27.0680,42.8977,70.8225,5.456761,0.0773217,0.58244295,353.9679,12/15.0/2022,2000,g 14.0,4.0
# From MPEC 2022-X67
P/2022 W1 (Rankin),e,13.4659,38.8161,17.7894,6.967118,0.0535950,0.51661742,4.8376,12/15.0/2022,2000,g 12.5,4.0
# From  98, 1083
1P/Halley,e,162.1796,59.3418,112.2594,17.87001,0.0130472,0.96664181,175.3552,12/15.0/2022,2000,g  4.0,6.0
# From MPEC 2022-X67
2P/Encke,e,11.3712,334.1195,187.2003,2.219633,0.2980453,0.84734142,267.1941,12/15.0/2022,2000,g 11.5,6.0
# From MPEC 2022-WD2
4P/Faye,e,8.0091,192.9241,207.0402,3.826174,0.1316913,0.57681508,60.8517,12/15.0/2022,2000,g  8.0,6.0
# From MPEC 2022-WD2
6P/d'Arrest,e,19.5114,138.9368,178.0891,3.496977,0.1507179,0.61254003,68.3204,12/15.0/2022,2000,g  7.5,16.0
# From MPEC 2022-X67
7P/Pons-Winnecke,e,22.3706,93.3324,172.5508,3.410341,0.1564975,0.63850930,88.7325,12/15.0/2022,2000,g 10.0,6.0
# From MPEC 2022-HC2
8P/Tuttle,e,54.9261,270.1942,207.4750,5.703731,0.0723545,0.82018093,34.3157,12/15.0/2022,2000,g  8.0,8.0
# From MPEC 2022-X67
9P/Tempel,e,10.4705,68.6797,179.4504,3.149102,0.1763697,0.50946512,50.2513,12/15.0/2022,2000,g  5.5,10.0
# From MPEC 2022-X67
10P/Tempel,e,12.0366,117.8142,195.5212,3.061451,0.1839980,0.53820709,116.0774,12/15.0/2022,2000,g  5.0,10.0
# From MPEC 2022-K19
11P/Tempel-Swift-LINEAR,e,14.4274,238.8758,167.9852,3.283837,0.1656272,0.57742775,123.9680,12/15.0/2022,2000,g 17.0,4.0
# From MPEC 2022-UE6
12P/Pons-Brooks,e,74.1803,255.8345,198.9765,17.19564,0.0138222,0.95456462,353.1844,12/15.0/2022,2000,g  5.0,6.0
# From  27, 604
13P/Olbers,e,44.6182,85.9377,64.3836,16.82046,0.0142872,0.93013901,351.9433,12/15.0/2022,2000,g  5.0,6.0
# From MPEC 2021-F20
14P/Wolf,e,27.9271,202.0405,159.0998,4.257995,0.1121751,0.35719879,206.0088,12/15.0/2022,2000,g  5.5,12.0
# From MPEC 2022-ED3
15P/Finlay,e,6.7980,13.7086,347.8663,3.507992,0.1500086,0.71703521,77.9289,12/15.0/2022,2000,g 12.0,4.0
# From MPEC 2022-X67
16P/Brooks,e,3.0115,138.8688,245.2440,3.658691,0.1408366,0.48643986,85.2869,12/15.0/2022,2000,g  7.5,10.0
# From MPEC 2022-UY9
17P/Holmes,e,19.0292,326.6266,24.5534,3.637668,0.1420592,0.42752543,94.1917,12/15.0/2022,2000,g 10.0,6.0
# From MPEC 2022-S20
19P/Borrelly,e,29.3049,74.2369,351.9331,3.606339,0.1439144,0.63778321,45.4986,12/15.0/2022,2000,g  4.5,10.0
# From MPEC 2021-F20
21P/Giacobini-Zinner,e,32.0588,195.3453,172.8880,3.494907,0.1508519,0.71125326,234.5889,12/15.0/2022,2000,g 11.4,4.0
# From MPEC 2022-X67
22P/Kopff,e,4.7412,120.7987,163.0283,3.442037,0.1543408,0.54922272,41.9562,12/15.0/2022,2000,g  3.0,10.4
# From MPC 14747
23P/Brorsen-Metcalf,e,19.2192,312.0874,129.1050,16.94376,0.0141315,0.97202859,0.0000,08/08.4882/1989,2000,g 10.0,6.0
# From MPC110085
24P/Schaumasse,e,11.5052,78.3496,58.4338,4.055058,0.1207003,0.70770185,224.6973,12/15.0/2022,2000,g  6.5,14.0
# From MPEC 2022-X67
26P/Grigg-Skjellerup,e,22.4326,211.5400,2.1503,3.015188,0.1882489,0.64044263,289.3324,12/15.0/2022,2000,g 12.0,16.0
# From MPC 78188
